CSS (TIANHE)            
1 48274U 21035A   23220.40789747  .00016598  00000+0  19721-3 0  9992
2 48274  41.4731 198.5246 0006872 112.9778 247.1787 15.60760702129990
